CCSDS_OMM_VERS = 2.0
CREATION_DATE  = 
ORIGINATOR     = 

OBJECT_NAME    = SL-4 R/B
OBJECT_ID      = 2014-021B
CENTER_NAME    = EARTH
REF_FRAME      = TEME
TIME_SYSTEM    = UTC
MEAN_ELEMENT_THEORY = SGP/SGP4

EPOCH          = 2026-03-05T05:07:40.513440
MEAN_MOTION    = 15.39008154
ECCENTRICITY   = .00978834
INCLINATION    = 51.6094
RA_OF_ASC_NODE = 359.1115
ARG_OF_PERICENTER = 86.6279
MEAN_ANOMALY   = 274.5896

EPHEMERIS_TYPE = 0
CLASSIFICATION_TYPE = U
NORAD_CAT_ID   = 39679
ELEMENT_SET_NO = 999
REV_AT_EPOCH   = 65558
BSTAR          = .43144492E-3
MEAN_MOTION_DOT = .19612E-3
MEAN_MOTION_DDOT = 0

CCSDS_OMM_VERS = 2.0
CREATION_DATE  = 
ORIGINATOR     = 

OBJECT_NAME    = ALOS-2
OBJECT_ID      = 2014-029A
CENTER_NAME    = EARTH
REF_FRAME      = TEME
TIME_SYSTEM    = UTC
MEAN_ELEMENT_THEORY = SGP/SGP4

EPOCH          = 2026-03-05T14:14:19.383360
MEAN_MOTION    = 14.79483506
ECCENTRICITY   = .00014494
INCLINATION    = 97.9203
RA_OF_ASC_NODE = 163.2501
ARG_OF_PERICENTER = 98.2649
MEAN_ANOMALY   = 261.8727

EPHEMERIS_TYPE = 0
CLASSIFICATION_TYPE = U
NORAD_CAT_ID   = 39766
ELEMENT_SET_NO = 999
REV_AT_EPOCH   = 63626
BSTAR          = .19427908E-3
MEAN_MOTION_DOT = .14E-4
MEAN_MOTION_DDOT = 0

CCSDS_OMM_VERS = 2.0
CREATION_DATE  = 
ORIGINATOR     = 

OBJECT_NAME    = YAOGAN-29
OBJECT_ID      = 2015-069A
CENTER_NAME    = EARTH
REF_FRAME      = TEME
TIME_SYSTEM    = UTC
MEAN_ELEMENT_THEORY = SGP/SGP4

EPOCH          = 2026-03-05T14:40:07.673088
MEAN_MOTION    = 14.82988954
ECCENTRICITY   = .0002146
INCLINATION    = 98.0142
RA_OF_ASC_NODE = 93.0293
ARG_OF_PERICENTER = 41.9726
MEAN_ANOMALY   = 318.1652

EPHEMERIS_TYPE = 0
CLASSIFICATION_TYPE = U
NORAD_CAT_ID   = 41038
ELEMENT_SET_NO = 999
REV_AT_EPOCH   = 55527
BSTAR          = .47241927E-4
MEAN_MOTION_DOT = .33E-5
MEAN_MOTION_DDOT = 0

CCSDS_OMM_VERS = 2.0
CREATION_DATE  = 
ORIGINATOR     = 

OBJECT_NAME    = ASTRO-H (HITOMI)
OBJECT_ID      = 2016-012A
CENTER_NAME    = EARTH
REF_FRAME      = TEME
TIME_SYSTEM    = UTC
MEAN_ELEMENT_THEORY = SGP/SGP4

EPOCH          = 2026-03-05T06:30:37.422144
MEAN_MOTION    = 15.09967820
ECCENTRICITY   = .0009998
INCLINATION    = 31.0008
RA_OF_ASC_NODE = 25.0587
ARG_OF_PERICENTER = 287.1051
MEAN_ANOMALY   = 72.8492

EPHEMERIS_TYPE = 0
CLASSIFICATION_TYPE = U
NORAD_CAT_ID   = 41337
ELEMENT_SET_NO = 999
REV_AT_EPOCH   = 55156
BSTAR          = .28587552E-3
MEAN_MOTION_DOT = .4856E-4
MEAN_MOTION_DDOT = 0

CCSDS_OMM_VERS = 2.0
CREATION_DATE  = 
ORIGINATOR     = 

OBJECT_NAME    = HXMT (HUIYAN)
OBJECT_ID      = 2017-034A
CENTER_NAME    = EARTH
REF_FRAME      = TEME
TIME_SYSTEM    = UTC
MEAN_ELEMENT_THEORY = SGP/SGP4

EPOCH          = 2026-03-05T08:49:05.697984
MEAN_MOTION    = 15.17392855
ECCENTRICITY   = .00324839
INCLINATION    = 43.0151
RA_OF_ASC_NODE = 40.7011
ARG_OF_PERICENTER = 209.5305
MEAN_ANOMALY   = 150.3709

EPHEMERIS_TYPE = 0
CLASSIFICATION_TYPE = U
NORAD_CAT_ID   = 42758
ELEMENT_SET_NO = 999
REV_AT_EPOCH   = 48188
BSTAR          = .35570383E-3
MEAN_MOTION_DOT = .71E-4
MEAN_MOTION_DDOT = 0

CCSDS_OMM_VERS = 2.0
CREATION_DATE  = 
ORIGINATOR     = 

OBJECT_NAME    = SAOCOM 1A
OBJECT_ID      = 2018-076A
CENTER_NAME    = EARTH
REF_FRAME      = TEME
TIME_SYSTEM    = UTC
MEAN_ELEMENT_THEORY = SGP/SGP4

EPOCH          = 2026-03-05T13:47:46.883616
MEAN_MOTION    = 14.82163859
ECCENTRICITY   = .00012831
INCLINATION    = 97.8882
RA_OF_ASC_NODE = 252.8054
ARG_OF_PERICENTER = 82.6047
MEAN_ANOMALY   = 277.5312

EPHEMERIS_TYPE = 0
CLASSIFICATION_TYPE = U
NORAD_CAT_ID   = 43641
ELEMENT_SET_NO = 999
REV_AT_EPOCH   = 40075
BSTAR          = .47398084E-4
MEAN_MOTION_DOT = .325E-5
MEAN_MOTION_DDOT = 0

CCSDS_OMM_VERS = 2.0
CREATION_DATE  = 
ORIGINATOR     = 

OBJECT_NAME    = H-2A R/B
OBJECT_ID      = 2018-084L
CENTER_NAME    = EARTH
REF_FRAME      = TEME
TIME_SYSTEM    = UTC
MEAN_ELEMENT_THEORY = SGP/SGP4

EPOCH          = 2026-03-05T13:51:59.104224
MEAN_MOTION    = 15.41138735
ECCENTRICITY   = .00257556
INCLINATION    = 98.8727
RA_OF_ASC_NODE = 281.0878
ARG_OF_PERICENTER = 39.2012
MEAN_ANOMALY   = 321.1089

EPHEMERIS_TYPE = 0
CLASSIFICATION_TYPE = U
NORAD_CAT_ID   = 43682
ELEMENT_SET_NO = 999
REV_AT_EPOCH   = 40514
BSTAR          = .58318436E-3
MEAN_MOTION_DOT = .24381E-3
MEAN_MOTION_DDOT = 0

CCSDS_OMM_VERS = 2.0
CREATION_DATE  = 
ORIGINATOR     = 

OBJECT_NAME    = SAOCOM 1B
OBJECT_ID      = 2020-059A
CENTER_NAME    = EARTH
REF_FRAME      = TEME
TIME_SYSTEM    = UTC
MEAN_ELEMENT_THEORY = SGP/SGP4

EPOCH          = 2026-03-05T16:09:57.083040
MEAN_MOTION    = 14.82168058
ECCENTRICITY   = .00014298
INCLINATION    = 97.8880
RA_OF_ASC_NODE = 252.0007
ARG_OF_PERICENTER = 82.6320
MEAN_ANOMALY   = 277.5056

EPHEMERIS_TYPE = 0
CLASSIFICATION_TYPE = U
NORAD_CAT_ID   = 46265
ELEMENT_SET_NO = 999
REV_AT_EPOCH   = 29815
BSTAR          = .98782762E-4
MEAN_MOTION_DOT = .734E-5
MEAN_MOTION_DDOT = 0

CCSDS_OMM_VERS = 2.0
CREATION_DATE  = 
ORIGINATOR     = 

OBJECT_NAME    = CSS (TIANHE)
OBJECT_ID      = 2021-035A
CENTER_NAME    = EARTH
REF_FRAME      = TEME
TIME_SYSTEM    = UTC
MEAN_ELEMENT_THEORY = SGP/SGP4

EPOCH          = 2026-03-05T13:20:20.046912
MEAN_MOTION    = 15.60433514
ECCENTRICITY   = .00068649
INCLINATION    = 41.4657
RA_OF_ASC_NODE = 233.3100
ARG_OF_PERICENTER = 247.1832
MEAN_ANOMALY   = 112.8282

EPHEMERIS_TYPE = 0
CLASSIFICATION_TYPE = U
NORAD_CAT_ID   = 48274
ELEMENT_SET_NO = 999
REV_AT_EPOCH   = 27696
BSTAR          = .23188471E-3
MEAN_MOTION_DOT = .19337E-3
MEAN_MOTION_DDOT = 0

CCSDS_OMM_VERS = 2.0
CREATION_DATE  = 
ORIGINATOR     = 

OBJECT_NAME    = COSMOS 2550
OBJECT_ID      = 2021-056A
CENTER_NAME    = EARTH
REF_FRAME      = TEME
TIME_SYSTEM    = UTC
MEAN_ELEMENT_THEORY = SGP/SGP4

EPOCH          = 2026-03-05T08:15:25.595136
MEAN_MOTION    = 15.33827483
ECCENTRICITY   = .00083725
INCLINATION    = 67.1449
RA_OF_ASC_NODE = 54.0765
ARG_OF_PERICENTER = 269.5213
MEAN_ANOMALY   = 90.4982

EPHEMERIS_TYPE = 0
CLASSIFICATION_TYPE = U
NORAD_CAT_ID   = 48865
ELEMENT_SET_NO = 999
REV_AT_EPOCH   = 26279
BSTAR          = -.172372E-6
MEAN_MOTION_DOT = -.197E-5
MEAN_MOTION_DDOT = 0

CCSDS_OMM_VERS = 2.0
CREATION_DATE  = 
ORIGINATOR     = 

OBJECT_NAME    = CZ-2C R/B
OBJECT_ID      = 2022-058K
CENTER_NAME    = EARTH
REF_FRAME      = TEME
TIME_SYSTEM    = UTC
MEAN_ELEMENT_THEORY = SGP/SGP4

EPOCH          = 2026-03-05T03:21:32.438592
MEAN_MOTION    = 15.53849210
ECCENTRICITY   = .00420759
INCLINATION    = 50.1909
RA_OF_ASC_NODE = 341.6872
ARG_OF_PERICENTER = 181.2962
MEAN_ANOMALY   = 178.7906

EPHEMERIS_TYPE = 0
CLASSIFICATION_TYPE = U
NORAD_CAT_ID   = 52794
ELEMENT_SET_NO = 999
REV_AT_EPOCH   = 20942
BSTAR          = .55741068E-3
MEAN_MOTION_DOT = .37686E-3
MEAN_MOTION_DDOT = 0

CCSDS_OMM_VERS = 2.0
CREATION_DATE  = 
ORIGINATOR     = 

OBJECT_NAME    = CZ-2C R/B
OBJECT_ID      = 2022-132E
CENTER_NAME    = EARTH
REF_FRAME      = TEME
TIME_SYSTEM    = UTC
MEAN_ELEMENT_THEORY = SGP/SGP4

EPOCH          = 2026-03-05T12:38:47.952096
MEAN_MOTION    = 15.61437567
ECCENTRICITY   = .00207584
INCLINATION    = 97.2958
RA_OF_ASC_NODE = 67.7190
ARG_OF_PERICENTER = 104.7871
MEAN_ANOMALY   = 255.5688

EPHEMERIS_TYPE = 0
CLASSIFICATION_TYPE = U
NORAD_CAT_ID   = 54039
ELEMENT_SET_NO = 999
REV_AT_EPOCH   = 18972
BSTAR          = .55359076E-3
MEAN_MOTION_DOT = .4782E-3
MEAN_MOTION_DDOT = 0

